[{"OBJECT_NAME":"STARLINK-34750","OBJECT_ID":"2025-165F","EPOCH":"2026-03-09T19:29:08.504736","MEAN_MOTION":15.05646009,"ECCENTRICITY":0.00012089,"INCLINATION":97.603,"RA_OF_ASC_NODE":147.4231,"ARG_OF_PERICENTER":103.575,"MEAN_ANOMALY":256.5612,"EPHEMERIS_TYPE":0,"CLASSIFICATION_TYPE":"U","NORAD_CAT_ID":65061,"ELEMENT_SET_NO":999,"REV_AT_EPOCH":3481,"BSTAR":0.00048405218,"MEAN_MOTION_DOT":6.93e-5,"MEAN_MOTION_DDOT":0},{"OBJECT_NAME":"OBJECT F","OBJECT_ID":"2025-292F","EPOCH":"2026-03-09T22:41:00.950496","MEAN_MOTION":15.06065121,"ECCENTRICITY":0.00151037,"INCLINATION":97.6416,"RA_OF_ASC_NODE":145.7425,"ARG_OF_PERICENTER":346.7214,"MEAN_ANOMALY":13.3613,"EPHEMERIS_TYPE":0,"CLASSIFICATION_TYPE":"U","NORAD_CAT_ID":66998,"ELEMENT_SET_NO":999,"REV_AT_EPOCH":1351,"BSTAR":0.00047210602,"MEAN_MOTION_DOT":6.85e-5,"MEAN_MOTION_DDOT":0}]
